SL-4 R/B                
1 39679U 14021B   26015.94322560  .00007153  00000+0  17189-3 0  9991
2 39679  51.6060 234.2636 0099359 270.3670  88.5928 15.37532594648158
ALOS-2                  
1 39766U 14029A   26015.89761789  .00000404  00000+0  60892-4 0  9992
2 39766  97.9204 115.2544 0001469  96.7208 263.4170 14.79483654629065
YAOGAN-29               
1 41038U 15069A   26015.96263073  .00000246  00000+0  37018-4 0  9991
2 41038  98.0200  44.2406 0002356 125.5964 234.5469 14.82924243548060
ASTRO-H (HITOMI)        
1 41337U 16012A   26015.94330458  .00001937  00000+0  11179-3 0  9999
2 41337  31.0011 336.8292 0009720 164.0886 196.0059 15.09597223544253
HXMT (HUIYAN)           
1 42758U 17034A   26015.97515740  .00003810  00000+0  20012-3 0  9992
2 42758  43.0157 309.5852 0033547 261.6798  98.0245 15.16715624474530
CZ-2C R/B               
1 43521U 18054D   26015.88949310  .00136821  00000+0  59276-3 0  9991
2 43521  35.1339 307.8523 0010672 144.1392 216.0062 15.83398373420451
SAOCOM 1A               
1 43641U 18076A   26015.96725346  .00000639  00000+0  86809-4 0  9998
2 43641  97.8853 204.8919 0001521  82.8801 277.2585 14.82151249393557
H-2A R/B                
1 43682U 18084L   26015.52195373  .00013556  00000+0  35182-3 0  9994
2 43682  98.8766 221.6441 0025884 207.0201 152.9694 15.38814553397590
SAOCOM 1B               
1 46265U 20059A   26015.93094551  .00000295  00000+0  43641-4 0  9996
2 46265  97.8848 203.9552 0001314  85.0622 275.0741 14.82149153290934
CSS (TIANHE)            
1 48274U 21035A   26015.77531291  .00012798  00000+0  15408-3 0  9992
2 48274  41.4651 169.8546 0011346 291.9793  67.9840 15.60536581269340
COSMOS 2550             
1 48865U 21056A   26015.96002432 -.00000183  00000+0  28125-6 0  9991
2 48865  67.1433 200.4271 0008346 269.5238  90.4960 15.33842719255372
CZ-2C R/B               
1 52794U 22058K   26015.79272642  .00015289  00000+0  26065-3 0  9993
2 52794  50.1881 229.6271 0042964 338.1033  21.8099 15.50498355201914
