CCSDS_OMM_VERS = 2.0
CREATION_DATE  = 
ORIGINATOR     = 

OBJECT_NAME    = SL-4 R/B
OBJECT_ID      = 2014-021B
CENTER_NAME    = EARTH
REF_FRAME      = TEME
TIME_SYSTEM    = UTC
MEAN_ELEMENT_THEORY = SGP/SGP4

EPOCH          = 2026-01-15T22:38:14.691840
MEAN_MOTION    = 15.37532594
ECCENTRICITY   = .00993591
INCLINATION    = 51.6060
RA_OF_ASC_NODE = 234.2636
ARG_OF_PERICENTER = 270.3670
MEAN_ANOMALY   = 88.5928

EPHEMERIS_TYPE = 0
CLASSIFICATION_TYPE = U
NORAD_CAT_ID   = 39679
ELEMENT_SET_NO = 999
REV_AT_EPOCH   = 64815
BSTAR          = .17188661E-3
MEAN_MOTION_DOT = .7153E-4
MEAN_MOTION_DDOT = 0

CCSDS_OMM_VERS = 2.0
CREATION_DATE  = 
ORIGINATOR     = 

OBJECT_NAME    = ALOS-2
OBJECT_ID      = 2014-029A
CENTER_NAME    = EARTH
REF_FRAME      = TEME
TIME_SYSTEM    = UTC
MEAN_ELEMENT_THEORY = SGP/SGP4

EPOCH          = 2026-01-15T21:32:34.185696
MEAN_MOTION    = 14.79483654
ECCENTRICITY   = .00014698
INCLINATION    = 97.9204
RA_OF_ASC_NODE = 115.2544
ARG_OF_PERICENTER = 96.7208
MEAN_ANOMALY   = 263.4170

EPHEMERIS_TYPE = 0
CLASSIFICATION_TYPE = U
NORAD_CAT_ID   = 39766
ELEMENT_SET_NO = 999
REV_AT_EPOCH   = 62906
BSTAR          = .60892352E-4
MEAN_MOTION_DOT = .404E-5
MEAN_MOTION_DDOT = 0

CCSDS_OMM_VERS = 2.0
CREATION_DATE  = 
ORIGINATOR     = 

OBJECT_NAME    = YAOGAN-29
OBJECT_ID      = 2015-069A
CENTER_NAME    = EARTH
REF_FRAME      = TEME
TIME_SYSTEM    = UTC
MEAN_ELEMENT_THEORY = SGP/SGP4

EPOCH          = 2026-01-15T23:06:11.295072
MEAN_MOTION    = 14.82924243
ECCENTRICITY   = .00023562
INCLINATION    = 98.0200
RA_OF_ASC_NODE = 44.2406
ARG_OF_PERICENTER = 125.5964
MEAN_ANOMALY   = 234.5469

EPHEMERIS_TYPE = 0
CLASSIFICATION_TYPE = U
NORAD_CAT_ID   = 41038
ELEMENT_SET_NO = 999
REV_AT_EPOCH   = 54806
BSTAR          = .37017724E-4
MEAN_MOTION_DOT = .246E-5
MEAN_MOTION_DDOT = 0

CCSDS_OMM_VERS = 2.0
CREATION_DATE  = 
ORIGINATOR     = 

OBJECT_NAME    = ASTRO-H (HITOMI)
OBJECT_ID      = 2016-012A
CENTER_NAME    = EARTH
REF_FRAME      = TEME
TIME_SYSTEM    = UTC
MEAN_ELEMENT_THEORY = SGP/SGP4

EPOCH          = 2026-01-15T22:38:21.515712
MEAN_MOTION    = 15.09597223
ECCENTRICITY   = .00097209
INCLINATION    = 31.0011
RA_OF_ASC_NODE = 336.8292
ARG_OF_PERICENTER = 164.0886
MEAN_ANOMALY   = 196.0059

EPHEMERIS_TYPE = 0
CLASSIFICATION_TYPE = U
NORAD_CAT_ID   = 41337
ELEMENT_SET_NO = 999
REV_AT_EPOCH   = 54425
BSTAR          = .11179074E-3
MEAN_MOTION_DOT = .1937E-4
MEAN_MOTION_DDOT = 0

CCSDS_OMM_VERS = 2.0
CREATION_DATE  = 
ORIGINATOR     = 

OBJECT_NAME    = HXMT (HUIYAN)
OBJECT_ID      = 2017-034A
CENTER_NAME    = EARTH
REF_FRAME      = TEME
TIME_SYSTEM    = UTC
MEAN_ELEMENT_THEORY = SGP/SGP4

EPOCH          = 2026-01-15T23:24:13.599360
MEAN_MOTION    = 15.16715624
ECCENTRICITY   = .00335474
INCLINATION    = 43.0157
RA_OF_ASC_NODE = 309.5852
ARG_OF_PERICENTER = 261.6798
MEAN_ANOMALY   = 98.0245

EPHEMERIS_TYPE = 0
CLASSIFICATION_TYPE = U
NORAD_CAT_ID   = 42758
ELEMENT_SET_NO = 999
REV_AT_EPOCH   = 47453
BSTAR          = .20011797E-3
MEAN_MOTION_DOT = .381E-4
MEAN_MOTION_DDOT = 0

CCSDS_OMM_VERS = 2.0
CREATION_DATE  = 
ORIGINATOR     = 

OBJECT_NAME    = CZ-2C R/B
OBJECT_ID      = 2018-054D
CENTER_NAME    = EARTH
REF_FRAME      = TEME
TIME_SYSTEM    = UTC
MEAN_ELEMENT_THEORY = SGP/SGP4

EPOCH          = 2026-01-15T21:20:52.203840
MEAN_MOTION    = 15.83398373
ECCENTRICITY   = .00106728
INCLINATION    = 35.1339
RA_OF_ASC_NODE = 307.8523
ARG_OF_PERICENTER = 144.1392
MEAN_ANOMALY   = 216.0062

EPHEMERIS_TYPE = 0
CLASSIFICATION_TYPE = U
NORAD_CAT_ID   = 43521
ELEMENT_SET_NO = 999
REV_AT_EPOCH   = 42045
BSTAR          = .59276106E-3
MEAN_MOTION_DOT = .136821E-2
MEAN_MOTION_DDOT = 0

CCSDS_OMM_VERS = 2.0
CREATION_DATE  = 
ORIGINATOR     = 

OBJECT_NAME    = SAOCOM 1A
OBJECT_ID      = 2018-076A
CENTER_NAME    = EARTH
REF_FRAME      = TEME
TIME_SYSTEM    = UTC
MEAN_ELEMENT_THEORY = SGP/SGP4

EPOCH          = 2026-01-15T23:12:50.698944
MEAN_MOTION    = 14.82151249
ECCENTRICITY   = .00015215
INCLINATION    = 97.8853
RA_OF_ASC_NODE = 204.8919
ARG_OF_PERICENTER = 82.8801
MEAN_ANOMALY   = 277.2585

EPHEMERIS_TYPE = 0
CLASSIFICATION_TYPE = U
NORAD_CAT_ID   = 43641
ELEMENT_SET_NO = 999
REV_AT_EPOCH   = 39355
BSTAR          = .86808961E-4
MEAN_MOTION_DOT = .639E-5
MEAN_MOTION_DDOT = 0

CCSDS_OMM_VERS = 2.0
CREATION_DATE  = 
ORIGINATOR     = 

OBJECT_NAME    = H-2A R/B
OBJECT_ID      = 2018-084L
CENTER_NAME    = EARTH
REF_FRAME      = TEME
TIME_SYSTEM    = UTC
MEAN_ELEMENT_THEORY = SGP/SGP4

EPOCH          = 2026-01-15T12:31:36.802272
MEAN_MOTION    = 15.38814553
ECCENTRICITY   = .00258845
INCLINATION    = 98.8766
RA_OF_ASC_NODE = 221.6441
ARG_OF_PERICENTER = 207.0201
MEAN_ANOMALY   = 152.9694

EPHEMERIS_TYPE = 0
CLASSIFICATION_TYPE = U
NORAD_CAT_ID   = 43682
ELEMENT_SET_NO = 999
REV_AT_EPOCH   = 39759
BSTAR          = .35181767E-3
MEAN_MOTION_DOT = .13556E-3
MEAN_MOTION_DDOT = 0

CCSDS_OMM_VERS = 2.0
CREATION_DATE  = 
ORIGINATOR     = 

OBJECT_NAME    = SAOCOM 1B
OBJECT_ID      = 2020-059A
CENTER_NAME    = EARTH
REF_FRAME      = TEME
TIME_SYSTEM    = UTC
MEAN_ELEMENT_THEORY = SGP/SGP4

EPOCH          = 2026-01-15T22:20:33.692064
MEAN_MOTION    = 14.82149153
ECCENTRICITY   = .00013143
INCLINATION    = 97.8848
RA_OF_ASC_NODE = 203.9552
ARG_OF_PERICENTER = 85.0622
MEAN_ANOMALY   = 275.0741

EPHEMERIS_TYPE = 0
CLASSIFICATION_TYPE = U
NORAD_CAT_ID   = 46265
ELEMENT_SET_NO = 999
REV_AT_EPOCH   = 29093
BSTAR          = .43641471E-4
MEAN_MOTION_DOT = .295E-5
MEAN_MOTION_DDOT = 0

CCSDS_OMM_VERS = 2.0
CREATION_DATE  = 
ORIGINATOR     = 

OBJECT_NAME    = CSS (TIANHE)
OBJECT_ID      = 2021-035A
CENTER_NAME    = EARTH
REF_FRAME      = TEME
TIME_SYSTEM    = UTC
MEAN_ELEMENT_THEORY = SGP/SGP4

EPOCH          = 2026-01-15T18:36:27.035424
MEAN_MOTION    = 15.60536581
ECCENTRICITY   = .00113468
INCLINATION    = 41.4651
RA_OF_ASC_NODE = 169.8546
ARG_OF_PERICENTER = 291.9793
MEAN_ANOMALY   = 67.9840

EPHEMERIS_TYPE = 0
CLASSIFICATION_TYPE = U
NORAD_CAT_ID   = 48274
ELEMENT_SET_NO = 999
REV_AT_EPOCH   = 26934
BSTAR          = .1540818E-3
MEAN_MOTION_DOT = .12798E-3
MEAN_MOTION_DDOT = 0

CCSDS_OMM_VERS = 2.0
CREATION_DATE  = 
ORIGINATOR     = 

OBJECT_NAME    = COSMOS 2550
OBJECT_ID      = 2021-056A
CENTER_NAME    = EARTH
REF_FRAME      = TEME
TIME_SYSTEM    = UTC
MEAN_ELEMENT_THEORY = SGP/SGP4

EPOCH          = 2026-01-15T23:02:26.101248
MEAN_MOTION    = 15.33842719
ECCENTRICITY   = .00083463
INCLINATION    = 67.1433
RA_OF_ASC_NODE = 200.4271
ARG_OF_PERICENTER = 269.5238
MEAN_ANOMALY   = 90.4960

EPHEMERIS_TYPE = 0
CLASSIFICATION_TYPE = U
NORAD_CAT_ID   = 48865
ELEMENT_SET_NO = 999
REV_AT_EPOCH   = 25537
BSTAR          = .281255E-6
MEAN_MOTION_DOT = -.183E-5
MEAN_MOTION_DDOT = 0

CCSDS_OMM_VERS = 2.0
CREATION_DATE  = 
ORIGINATOR     = 

OBJECT_NAME    = CZ-2C R/B
OBJECT_ID      = 2022-058K
CENTER_NAME    = EARTH
REF_FRAME      = TEME
TIME_SYSTEM    = UTC
MEAN_ELEMENT_THEORY = SGP/SGP4

EPOCH          = 2026-01-15T19:01:31.562688
MEAN_MOTION    = 15.50498355
ECCENTRICITY   = .0042964
INCLINATION    = 50.1881
RA_OF_ASC_NODE = 229.6271
ARG_OF_PERICENTER = 338.1033
MEAN_ANOMALY   = 21.8099

EPHEMERIS_TYPE = 0
CLASSIFICATION_TYPE = U
NORAD_CAT_ID   = 52794
ELEMENT_SET_NO = 999
REV_AT_EPOCH   = 20191
BSTAR          = .26064934E-3
MEAN_MOTION_DOT = .15289E-3
MEAN_MOTION_DDOT = 0

